[
    {
        "OBJECT_NAME": "NAVSTAR 16 (USA 47)",
        "OBJECT_ID": "1989-085A",
        "EPOCH": "2025-05-01T15:09:09.679392",
        "MEAN_MOTION": 1.89426173,
        "ECCENTRICITY": 0.0008132,
        "INCLINATION": 53.9926,
        "RA_OF_ASC_NODE": 198.1558,
        "ARG_OF_PERICENTER": 70.5211,
        "MEAN_ANOMALY": 352.3934,
        "EPHEMERIS_TYPE": 0,
        "CLASSIFICATION_TYPE": "U",
        "NORAD_CAT_ID": 20302,
        "ELEMENT_SET_NO": 999,
        "REV_AT_EPOCH": 25074,
        "BSTAR": 0,
        "MEAN_MOTION_DOT": 3e-08,
        "MEAN_MOTION_DDOT": 0
    },
    {
        "OBJECT_NAME": "NAVSTAR 17 (USA 49)",
        "OBJECT_ID": "1989-097A",
        "EPOCH": "2025-05-02T11:00:33.770880",
        "MEAN_MOTION": 1.89175438,
        "ECCENTRICITY": 0.0023964,
        "INCLINATION": 56.2066,
        "RA_OF_ASC_NODE": 25.2245,
        "ARG_OF_PERICENTER": 315.1656,
        "MEAN_ANOMALY": 168.3637,
        "EPHEMERIS_TYPE": 0,
        "CLASSIFICATION_TYPE": "U",
        "NORAD_CAT_ID": 20361,
        "ELEMENT_SET_NO": 999,
        "REV_AT_EPOCH": 24158,
        "BSTAR": 0,
        "MEAN_MOTION_DOT": -1.06e-06,
        "MEAN_MOTION_DDOT": 0
    },
    {
        "OBJECT_NAME": "NAVSTAR 18 (USA 50)",
        "OBJECT_ID": "1990-008A",
        "EPOCH": "2025-05-03T11:30:27.236160",
        "MEAN_MOTION": 1.89597929,
        "ECCENTRICITY": 0.0016146,
        "INCLINATION": 54.7824,
        "RA_OF_ASC_NODE": 147.9775,
        "ARG_OF_PERICENTER": 275.9821,
        "MEAN_ANOMALY": 84.9205,
        "EPHEMERIS_TYPE": 0,
        "CLASSIFICATION_TYPE": "U",
        "NORAD_CAT_ID": 20452,
        "ELEMENT_SET_NO": 999,
        "REV_AT_EPOCH": 24866,
        "BSTAR": 0,
        "MEAN_MOTION_DOT": 4e-07,
        "MEAN_MOTION_DDOT": 0
    },
    {
        "OBJECT_NAME": "NAVSTAR 19 (USA 54)",
        "OBJECT_ID": "1990-025A",
        "EPOCH": "2025-05-01T07:11:39.174144",
        "MEAN_MOTION": 1.91039075,
        "ECCENTRICITY": 0.0044369,
        "INCLINATION": 53.7299,
        "RA_OF_ASC_NODE": 260.8739,
        "ARG_OF_PERICENTER": 218.9167,
        "MEAN_ANOMALY": 133.5355,
        "EPHEMERIS_TYPE": 0,
        "CLASSIFICATION_TYPE": "U",
        "NORAD_CAT_ID": 20533,
        "ELEMENT_SET_NO": 999,
        "REV_AT_EPOCH": 24714,
        "BSTAR": 0,
        "MEAN_MOTION_DOT": -1.6e-07,
        "MEAN_MOTION_DDOT": 0
    },
    {
        "OBJECT_NAME": "NAVSTAR 20 (USA 63)",
        "OBJECT_ID": "1990-068A",
        "EPOCH": "2025-05-02T07:19:31.933344",
        "MEAN_MOTION": 1.87186099,
        "ECCENTRICITY": 0.0037957,
        "INCLINATION": 54.5912,
        "RA_OF_ASC_NODE": 88.8611,
        "ARG_OF_PERICENTER": 323.3865,
        "MEAN_ANOMALY": 198.9859,
        "EPHEMERIS_TYPE": 0,
        "CLASSIFICATION_TYPE": "U",
        "NORAD_CAT_ID": 20724,
        "ELEMENT_SET_NO": 999,
        "REV_AT_EPOCH": 24223,
        "BSTAR": 0,
        "MEAN_MOTION_DOT": 3e-08,
        "MEAN_MOTION_DDOT": 0
    },
    {
        "OBJECT_NAME": "NAVSTAR 21 (USA 64)",
        "OBJECT_ID": "1990-088A",
        "EPOCH": "2025-05-02T12:53:04.356672",
        "MEAN_MOTION": 1.87752559,
        "ECCENTRICITY": 0.0023119,
        "INCLINATION": 56.2947,
        "RA_OF_ASC_NODE": 23.8007,
        "ARG_OF_PERICENTER": 286.2217,
        "MEAN_ANOMALY": 250.5674,
        "EPHEMERIS_TYPE": 0,
        "CLASSIFICATION_TYPE": "U",
        "NORAD_CAT_ID": 20830,
        "ELEMENT_SET_NO": 999,
        "REV_AT_EPOCH": 24509,
        "BSTAR": 0,
        "MEAN_MOTION_DOT": -1.08e-06,
        "MEAN_MOTION_DDOT": 0
    },
    {
        "OBJECT_NAME": "NAVSTAR 22 (USA 66)",
        "OBJECT_ID": "1990-103A",
        "EPOCH": "2025-05-02T08:21:48.344544",
        "MEAN_MOTION": 1.88155331,
        "ECCENTRICITY": 0.0021816,
        "INCLINATION": 55.835,
        "RA_OF_ASC_NODE": 65.7564,
        "ARG_OF_PERICENTER": 81.7629,
        "MEAN_ANOMALY": 278.4584,
        "EPHEMERIS_TYPE": 0,
        "CLASSIFICATION_TYPE": "U",
        "NORAD_CAT_ID": 20959,
        "ELEMENT_SET_NO": 999,
        "REV_AT_EPOCH": 24813,
        "BSTAR": 0,
        "MEAN_MOTION_DOT": -4e-07,
        "MEAN_MOTION_DDOT": 0
    },
    {
        "OBJECT_NAME": "NAVSTAR 23 (USA 71)",
        "OBJECT_ID": "1991-047A",
        "EPOCH": "2025-05-02T08:29:10.294368",
        "MEAN_MOTION": 1.91857743,
        "ECCENTRICITY": 0.0034446,
        "INCLINATION": 56.4941,
        "RA_OF_ASC_NODE": 7.0937,
        "ARG_OF_PERICENTER": 126.144,
        "MEAN_ANOMALY": 50.1627,
        "EPHEMERIS_TYPE": 0,
        "CLASSIFICATION_TYPE": "U",
        "NORAD_CAT_ID": 21552,
        "ELEMENT_SET_NO": 999,
        "REV_AT_EPOCH": 24350,
        "BSTAR": 0,
        "MEAN_MOTION_DOT": -1.11e-06,
        "MEAN_MOTION_DDOT": 0
    },
    {
        "OBJECT_NAME": "NAVSTAR 25 (USA 80)",
        "OBJECT_ID": "1992-019A",
        "EPOCH": "2025-05-01T15:29:59.800128",
        "MEAN_MOTION": 1.8766087,
        "ECCENTRICITY": 0.0029864,
        "INCLINATION": 55.2845,
        "RA_OF_ASC_NODE": 319.5622,
        "ARG_OF_PERICENTER": 337.6916,
        "MEAN_ANOMALY": 24.7076,
        "EPHEMERIS_TYPE": 0,
        "CLASSIFICATION_TYPE": "U",
        "NORAD_CAT_ID": 21930,
        "ELEMENT_SET_NO": 999,
        "REV_AT_EPOCH": 23373,
        "BSTAR": 0,
        "MEAN_MOTION_DOT": -7.1e-07,
        "MEAN_MOTION_DDOT": 0
    },
    {
        "OBJECT_NAME": "NAVSTAR 28 (USA 85)",
        "OBJECT_ID": "1992-079A",
        "EPOCH": "2025-05-02T03:53:30.676704",
        "MEAN_MOTION": 1.89108533,
        "ECCENTRICITY": 0.0025227,
        "INCLINATION": 55.4053,
        "RA_OF_ASC_NODE": 127.9821,
        "ARG_OF_PERICENTER": 353.1231,
        "MEAN_ANOMALY": 6.8551,
        "EPHEMERIS_TYPE": 0,
        "CLASSIFICATION_TYPE": "U",
        "NORAD_CAT_ID": 22231,
        "ELEMENT_SET_NO": 999,
        "REV_AT_EPOCH": 5436,
        "BSTAR": 0,
        "MEAN_MOTION_DOT": 4.1e-07,
        "MEAN_MOTION_DDOT": 0
    }
]