20302,NAVSTAR 16 (USA 47),1989,760.19,-1.0,-,53.99,Inactive,0,MEO,USA,USA,Unknown,Unknown,Unknown,1 20302U 89085A   25121.63136203  .00000003  00000+0  00000+0 0  9993,2 20302  53.9926 198.1558 0008132  70.5211 352.3934  1.89426173250748,1.89426173,0.0008132,MEO
20361,NAVSTAR 17 (USA 49),1989,761.2,-1.0,-,56.21,Inactive,0,MEO,USA,USA,Unknown,Unknown,Unknown,1 20361U 89097A   25122.45872420 -.00000106  00000+0  00000+0 0  9995,2 20361  56.2066  25.2245 0023964 315.1656 168.3637  1.89175438241580,1.89175438,0.0023964,MEO
20452,NAVSTAR 18 (USA 50),1990,759.5,-1.0,-,54.78,Inactive,0,MEO,USA,USA,Unknown,Unknown,Unknown,1 20452U 90008A   25123.47948190  .00000040  00000+0  00000+0 0  9997,2 20452  54.7824 147.9775 0016146 275.9821  84.9205  1.89597929248660,1.89597929,0.0016146,MEO
20533,NAVSTAR 19 (USA 54),1990,753.77,-1.0,-,53.73,Inactive,0,MEO,USA,USA,Unknown,Unknown,Unknown,1 20533U 90025A   25121.29975896 -.00000016  00000+0  00000+0 0  9991,2 20533  53.7299 260.8739 0044369 218.9167 133.5355  1.91039075247143,1.91039075,0.0044369,MEO
20724,NAVSTAR 20 (USA 63),1990,769.29,-1.0,-,54.59,Inactive,0,MEO,USA,USA,Unknown,Unknown,Unknown,1 20724U 90068A   25122.30523071  .00000003  00000+0  00000+0 0  9992,2 20724  54.5912  88.8611 0037957 323.3865 198.9859  1.87186099242237,1.87186099,0.0037957,MEO
20830,NAVSTAR 21 (USA 64),1990,766.97,-1.0,-,56.29,Inactive,0,MEO,USA,USA,Unknown,Unknown,Unknown,1 20830U 90088A   25122.53685598 -.00000108  00000+0  00000+0 0  9997,2 20830  56.2947  23.8007 0023119 286.2217 250.5674  1.87752559245090,1.87752559,0.0023119,MEO
20959,NAVSTAR 22 (USA 66),1990,765.33,-1.0,-,55.84,Inactive,0,MEO,USA,USA,Unknown,Unknown,Unknown,1 20959U 90103A   25122.34847621 -.00000040  00000+0  00000+0 0  9998,2 20959  55.8350  65.7564 0021816  81.7629 278.4584  1.88155331248138,1.88155331,0.0021816,MEO
21552,NAVSTAR 23 (USA 71),1991,750.56,-1.0,-,56.49,Inactive,0,MEO,USA,USA,Unknown,Unknown,Unknown,1 21552U 91047A   25122.35359137 -.00000111  00000+0  00000+0 0  9996,2 21552  56.4941   7.0937 0034446 126.1440  50.1627  1.91857743243501,1.91857743,0.0034446,MEO
21930,NAVSTAR 25 (USA 80),1992,767.34,-1.0,-,55.28,Inactive,0,MEO,USA,USA,Unknown,Unknown,Unknown,1 21930U 92019A   25121.64583102 -.00000071  00000+0  00000+0 0  9993,2 21930  55.2845 319.5622 0029864 337.6916  24.7076  1.87660870233735,1.8766087,0.0029864,MEO
22231,NAVSTAR 28 (USA 85),1992,761.47,-1.0,-,55.41,Inactive,0,MEO,USA,USA,Unknown,Unknown,Unknown,1 22231U 92079A   25122.16216061  .00000041  00000+0  00000+0 0  9995,2 22231  55.4053 127.9821 0025227 353.1231   6.8551  1.89108533 54361,1.89108533,0.0025227,MEO
